CTC1_L_00370001-01
1 10000U 22648NS  26075.70034722  .00000000  00000+0  00000-0 0  9997
2 10000  40.0000   0.0000 0000000   0.0000   0.0000 13.16009679    10
CTC1_L_00370001-02
1 10001U 26077KZ  26075.70034722  .00000000  00000+0  00000-0 0  9998
2 10001  40.0000   0.0000 0000000   0.0000  90.0000 13.16009679    10
CTC1_L_00370001-03
1 10002U 24308HD  26075.70034722  .00000000  00000+0  00000-0 0  9994
2 10002  40.0000   0.0000 0000000   0.0000 180.0000 13.16009679    11
CTC1_L_00370001-04
1 10003U 23316AO  26075.70034722  .00000000  00000+0  00000-0 0  9993
2 10003  40.0000   0.0000 0000000   0.0000 270.0000 13.16009679    12
CTC1_L_00370002-01
1 10004U 25875DX  26075.70034722  .00000000  00000+0  00000-0 0  9996
2 10004  40.0000  12.0000 0000000   0.0000  12.0000 13.16009679    10
CTC1_L_00370002-02
1 10005U 23819NK  26075.70034722  .00000000  00000+0  00000-0 0  9993
2 10005  40.0000  12.0000 0000000   0.0000 102.0000 13.16009679    11
CTC1_L_00370002-03
1 10006U 22776KV  26075.70034722  .00000000  00000+0  00000-0 0  9995
2 10006  40.0000  12.0000 0000000   0.0000 192.0000 13.16009679    11
CTC1_L_00370002-04
1 10007U 23452M   26075.70034722  .00000000  00000+0  00000-0 0  9998
2 10007  40.0000  12.0000 0000000   0.0000 282.0000 13.16009679    12
CTC1_L_00370003-01
1 10008U 26120PF  26075.70034722  .00000000  00000+0  00000-0 0  9994
2 10008  40.0000  24.0000 0000000   0.0000  24.0000 13.16009679    10
CTC1_L_00370003-02
1 10009U 22441OJ  26075.70034722  .00000000  00000+0  00000-0 0  9997
2 10009  40.0000  24.0000 0000000   0.0000 114.0000 13.16009679    11
CTC1_L_00370003-03
1 10010U 22131OD  26075.70034722  .00000000  00000+0  00000-0 0  9995
2 10010  40.0000  24.0000 0000000   0.0000 204.0000 13.16009679    13
CTC1_L_00370003-04
1 10011U 24823WH  26075.70034722  .00000000  00000+0  00000-0 0  9996
2 10011  40.0000  24.0000 0000000   0.0000 294.0000 13.16009679    13
CTC1_L_00370004-01
1 10012U 23881DD  26075.70034722  .00000000  00000+0  00000-0 0  9990
2 10012  40.0000  36.0000 0000000   0.0000  36.0000 13.16009679    11
CTC1_L_00370004-02
1 10013U 24434IK  26075.70034722  .00000000  00000+0  00000-0 0  9996
2 10013  40.0000  36.0000 0000000   0.0000 126.0000 13.16009679    12
CTC1_L_00370004-03
1 10014U 22888QX  26075.70034722  .00000000  00000+0  00000-0 0  9998
2 10014  40.0000  36.0000 0000000   0.0000 216.0000 13.16009679    13
CTC1_L_00370004-04
1 10015U 25223UV  26075.70034722  .00000000  00000+0  00000-0 0  9995
2 10015  40.0000  36.0000 0000000   0.0000 306.0000 13.16009679    14
CTC1_L_00370005-01
1 10016U 23792S   26075.70034722  .00000000  00000+0  00000-0 0  9995
2 10016  40.0000  48.0000 0000000   0.0000  48.0000 13.16009679    11
CTC1_L_00370005-02
1 10017U 24756PI  26075.70034722  .00000000  00000+0  00000-0 0  9997
2 10017  40.0000  48.0000 0000000   0.0000 138.0000 13.16009679    12
CTC1_L_00370005-03
1 10018U 24697DQ  26075.70034722  .00000000  00000+0  00000-0 0  9992
2 10018  40.0000  48.0000 0000000   0.0000 228.0000 13.16009679    13
CTC1_L_00370005-04
1 10019U 26145FQ  26075.70034722  .00000000  00000+0  00000-0 0  9993
2 10019  40.0000  48.0000 0000000   0.0000 318.0000 13.16009679    14
CTC1_L_00370006-01
1 10020U 23184EL  26075.70034722  .00000000  00000+0  00000-0 0  9995
2 10020  40.0000  60.0000 0000000   0.0000  60.0000 13.16009679    14
CTC1_L_00370006-02
1 10021U 24523VW  26075.70034722  .00000000  00000+0  00000-0 0  9994
2 10021  40.0000  60.0000 0000000   0.0000 150.0000 13.16009679    15
CTC1_L_00370006-03
1 10022U 26287BW  26075.70034722  .00000000  00000+0  00000-0 0  9994
2 10022  40.0000  60.0000 0000000   0.0000 240.0000 13.16009679    16
CTC1_L_00370006-04
1 10023U 25892MC  26075.70034722  .00000000  00000+0  00000-0 0  9996
2 10023  40.0000  60.0000 0000000   0.0000 330.0000 13.16009679    17
CTC1_L_00370007-01
1 10024U 25104U   26075.70034722  .00000000  00000+0  00000-0 0  9993
2 10024  40.0000  72.0000 0000000   0.0000  72.0000 13.16009679    14
CTC1_L_00370007-02
1 10025U 22967QS  26075.70034722  .00000000  00000+0  00000-0 0  9998
2 10025  40.0000  72.0000 0000000   0.0000 162.0000 13.16009679    15
CTC1_L_00370007-03
1 10026U 25189EP  26075.70034722  .00000000  00000+0  00000-0 0  9998
2 10026  40.0000  72.0000 0000000   0.0000 252.0000 13.16009679    16
CTC1_L_00370007-04
1 10027U 26246NP  26075.70034722  .00000000  00000+0  00000-0 0  9994
2 10027  40.0000  72.0000 0000000   0.0000 342.0000 13.16009679    17
CTC1_L_00370008-01
1 10028U 22821FG  26075.70034722  .00000000  00000+0  00000-0 0  9990
2 10028  40.0000  84.0000 0000000   0.0000  84.0000 13.16009679    14
CTC1_L_00370008-02
1 10029U 26771EU  26075.70034722  .00000000  00000+0  00000-0 0  9999
2 10029  40.0000  84.0000 0000000   0.0000 174.0000 13.16009679    15
CTC1_L_00370008-03
1 10030U 23400KQ  26075.70034722  .00000000  00000+0  00000-0 0  9997
2 10030  40.0000  84.0000 0000000   0.0000 264.0000 13.16009679    17
CTC1_L_00370008-04
1 10031U 25071GL  26075.70034722  .00000000  00000+0  00000-0 0  9994
2 10031  40.0000  84.0000 0000000   0.0000 354.0000 13.16009679    18
CTC1_L_00370009-01
1 10032U 22266DC  26075.70034722  .00000000  00000+0  00000-0 0  9998
2 10032  40.0000  96.0000 0000000   0.0000  96.0000 13.16009679    15
CTC1_L_00370009-02
1 10033U 22897NQ  26075.70034722  .00000000  00000+0  00000-0 0  9999
2 10033  40.0000  96.0000 0000000   0.0000 186.0000 13.16009679    16
CTC1_L_00370009-03
1 10034U 22813AI  26075.70034722  .00000000  00000+0  00000-0 0  9998
2 10034  40.0000  96.0000 0000000   0.0000 276.0000 13.16009679    17
CTC1_L_00370009-04
1 10035U 22458AQ  26075.70034722  .00000000  00000+0  00000-0 0  9994
2 10035  40.0000  96.0000 0000000   0.0000   6.0000 13.16009679    19
CTC1_L_00370010-01
1 10036U 22787CP  26075.70034722  .00000000  00000+0  00000-0 0  9990
2 10036  40.0000 108.0000 0000000   0.0000 108.0000 13.16009679    17
CTC1_L_00370010-02
1 10037U 26883TY  26075.70034722  .00000000  00000+0  00000-0 0  9992
2 10037  40.0000 108.0000 0000000   0.0000 198.0000 13.16009679    17
CTC1_L_00370010-03
1 10038U 26120IF  26075.70034722  .00000000  00000+0  00000-0 0  9997
2 10038  40.0000 108.0000 0000000   0.0000 288.0000 13.16009679    18
CTC1_L_00370010-04
1 10039U 26183TQ  26075.70034722  .00000000  00000+0  00000-0 0  9997
2 10039  40.0000 108.0000 0000000   0.0000  18.0000 13.16009679    10
CTC1_L_00370011-01
1 10040U 24207KT  26075.70034722  .00000000  00000+0  00000-0 0  9994
2 10040  40.0000 120.0000 0000000   0.0000 120.0000 13.16009679    10
CTC1_L_00370011-02
1 10041U 26702VD  26075.70034722  .00000000  00000+0  00000-0 0  9997
2 10041  40.0000 120.0000 0000000   0.0000 210.0000 13.16009679    11
CTC1_L_00370011-03
1 10042U 24332XG  26075.70034722  .00000000  00000+0  00000-0 0  9995
2 10042  40.0000 120.0000 0000000   0.0000 300.0000 13.16009679    12
CTC1_L_00370011-04
1 10043U 25088OY  26075.70034722  .00000000  00000+0  00000-0 0  9995
2 10043  40.0000 120.0000 0000000   0.0000  30.0000 13.16009679    13
CTC1_L_00370012-01
1 10044U 26376TG  26075.70034722  .00000000  00000+0  00000-0 0  9997
2 10044  40.0000 132.0000 0000000   0.0000 132.0000 13.16009679    10
CTC1_L_00370012-02
1 10045U 24614TZ  26075.70034722  .00000000  00000+0  00000-0 0  9991
2 10045  40.0000 132.0000 0000000   0.0000 222.0000 13.16009679    11
CTC1_L_00370012-03
1 10046U 25780BO  26075.70034722  .00000000  00000+0  00000-0 0  9997
2 10046  40.0000 132.0000 0000000   0.0000 312.0000 13.16009679    12
CTC1_L_00370012-04
1 10047U 26317IT  26075.70034722  .00000000  00000+0  00000-0 0  9995
2 10047  40.0000 132.0000 0000000   0.0000  42.0000 13.16009679    13
CTC1_L_00370013-01
1 10048U 24406RG  26075.70034722  .00000000  00000+0  00000-0 0  9993
2 10048  40.0000 144.0000 0000000   0.0000 144.0000 13.16009679    10
CTC1_L_00370013-02
1 10049U 26107TM  26075.70034722  .00000000  00000+0  00000-0 0  9994
2 10049  40.0000 144.0000 0000000   0.0000 234.0000 13.16009679    11
CTC1_L_00370013-03
1 10050U 23515YK  26075.70034722  .00000000  00000+0  00000-0 0  9996
2 10050  40.0000 144.0000 0000000   0.0000 324.0000 13.16009679    13
CTC1_L_00370013-04
1 10051U 24685RX  26075.70034722  .00000000  00000+0  00000-0 0  9996
2 10051  40.0000 144.0000 0000000   0.0000  54.0000 13.16009679    14
CTC1_L_00370014-01
1 10052U 26169DX  26075.70034722  .00000000  00000+0  00000-0 0  9996
2 10052  40.0000 156.0000 0000000   0.0000 156.0000 13.16009679    11
CTC1_L_00370014-02
1 10053U 26095LQ  26075.70034722  .00000000  00000+0  00000-0 0  9995
2 10053  40.0000 156.0000 0000000   0.0000 246.0000 13.16009679    12
CTC1_L_00370014-03
1 10054U 24622IF  26075.70034722  .00000000  00000+0  00000-0 0  9990
2 10054  40.0000 156.0000 0000000   0.0000 336.0000 13.16009679    13
CTC1_L_00370014-04
1 10055U 23484GU  26075.70034722  .00000000  00000+0  00000-0 0  9996
2 10055  40.0000 156.0000 0000000   0.0000  66.0000 13.16009679    14
CTC1_L_00370015-01
1 10056U 22573WK  26075.70034722  .00000000  00000+0  00000-0 0  9995
2 10056  40.0000 168.0000 0000000   0.0000 168.0000 13.16009679    11
CTC1_L_00370015-02
1 10057U 24420PV  26075.70034722  .00000000  00000+0  00000-0 0  9999
2 10057  40.0000 168.0000 0000000   0.0000 258.0000 13.16009679    12
CTC1_L_00370015-03
1 10058U 26545XZ  26075.70034722  .00000000  00000+0  00000-0 0  9990
2 10058  40.0000 168.0000 0000000   0.0000 348.0000 13.16009679    13
CTC1_L_00370015-04
1 10059U 22778UU  26075.70034722  .00000000  00000+0  00000-0 0  9995
2 10059  40.0000 168.0000 0000000   0.0000  78.0000 13.16009679    14
CTC1_L_00370016-01
1 10060U 23089RO  26075.70034722  .00000000  00000+0  00000-0 0  9993
2 10060  40.0000 180.0000 0000000   0.0000 180.0000 13.16009679    14
CTC1_L_00370016-02
1 10061U 26167HL  26075.70034722  .00000000  00000+0  00000-0 0  9994
2 10061  40.0000 180.0000 0000000   0.0000 270.0000 13.16009679    15
